STARLINK-30785          
1 58191U 23167S   26068.55719495  .00000823  00000+0  40356-4 0  9994
2 58191  42.9994 144.2469 0001287 264.4263  95.6441 15.26746987130961
TEVEL2-7                
1 63238U 25052AE  26068.66113295  .00019244  00000+0  69668-3 0  9998
2 63238  97.4054 324.3041 0008105 124.6830 235.5175 15.28414096 54803
